NORAD_CAT_ID,OBJECT_NAME,OBJECT_TYPE,EPOCH,MEAN_MOTION,ECCENTRICITY,INCLINATION,RA_OF_ASC_NODE,ARG_OF_PERICENTER,MEAN_ANOMALY,BSTAR,MEAN_MOTION_DOT,MEAN_MOTION_DDOT,TLE_LINE0,TLE_LINE1,TLE_LINE2,SEMIMAJOR_AXIS,PERIOD,APOGEE,PERIGEE,DECAYED
54787.0,STARLINK-5441,PAYLOAD,2023-03-01 03:22:42,15.08837002,0.0001209,53.2175,322.3437,89.4455,270.6676,-0.00033754,-5.655e-05,0.0,0 STARLINK-5441,1 54787U 22175AF  23060.14076832 -.00005655  00000-0 -33754-3 0  9998,2 54787  53.2175 322.3437 0001209  89.4455 270.6676 15.08837002 11018,6917.89,95.438,540.591,538.918,0.0
54787.0,STARLINK-5441,PAYLOAD,2023-03-01 08:08:51,15.08843903,0.0001099,53.2175,321.4536,83.454,276.6577,-0.00029145,-4.924e-05,0.0,0 STARLINK-5441,1 54787U 22175AF  23060.33948284 -.00004924  00000-0 -29145-3 0  9995,2 54787  53.2175 321.4536 0001099  83.4540 276.6577 15.08843903 11040,6917.868,95.437,540.494,538.973,0.0
54787.0,STARLINK-5441,PAYLOAD,2023-03-01 20:51:55,15.08845905,0.0001164,53.2173,319.0772,79.4367,280.6756,-6.3717e-05,-1.302e-05,0.0,0 STARLINK-5441,1 54787U 22175AF  23060.86939496 -.00001302  00000-0 -63717-4 0  9999,2 54787  53.2173 319.0772 0001164  79.4367 280.6756 15.08845905 13284,6917.862,95.437,540.533,538.922,0.0
54787.0,STARLINK-5441,PAYLOAD,2023-03-02 03:13:27,15.08859995,0.0001011,53.2168,317.8846,97.9551,262.1556,3.0814e-05,2.03e-06,0.0,0 STARLINK-5441,1 54787U 22175AF  23061.13434215  .00000203  00000-0  30814-4 0  9998,2 54787  53.2168 317.8846 0001011  97.9551 262.1556 15.08859995 11169,6917.819,95.436,540.384,538.985,0.0
54787.0,STARLINK-5441,PAYLOAD,2023-03-02 17:31:57,15.08829282,9.07e-05,53.217,315.2088,91.1812,268.9284,0.00022559,3.303e-05,0.0,0 STARLINK-5441,1 54787U 22175AF  23061.73052436  .00003303  00000-0  22559-3 0  9995,2 54787  53.2170 315.2088 0000907  91.1812 268.9284 15.08829282 11259,6917.913,95.438,540.406,539.151,0.0
54787.0,STARLINK-5441,PAYLOAD,2023-03-03 03:04:15,15.08836784,9.07e-05,53.2173,313.4234,83.3665,276.7431,0.00025094,3.708e-05,0.0,0 STARLINK-5441,1 54787U 22175AF  23062.12796224  .00003708  00000-0  25094-3 0  9995,2 54787  53.2173 313.4234 0000907  83.3665 276.7431 15.08836784 13476,6917.89,95.438,540.383,539.128,0.0
54787.0,STARLINK-5441,PAYLOAD,2023-03-03 22:08:53,15.08850271,0.0001249,53.2176,309.8597,88.1819,271.9316,0.00011435,1.533e-05,0.0,0 STARLINK-5441,1 54787U 22175AF  23062.92283822  .00001533  00000-0  11435-3 0  9996,2 54787  53.2176 309.8597 0001249  88.1819 271.9316 15.08850271 13593,6917.849,95.437,540.578,538.85,0.0
54787.0,STARLINK-5441,PAYLOAD,2023-03-04 01:19:38,15.08860609,0.0001304,53.2167,309.2625,76.0362,284.0775,0.00014038,1.948e-05,0.0,0 STARLINK-5441,1 54787U 22175AF  23063.05530981  .00001948  00000-0  14038-3 0  9994,2 54787  53.2167 309.2625 0001304  76.0362 284.0775 15.08860609 11453,6917.817,95.436,540.584,538.78,0.0
54787.0,STARLINK-5441,PAYLOAD,2023-03-04 17:13:31,15.08831992,9.05e-05,53.2166,306.2898,94.0609,266.0487,-0.00011806,-2.166e-05,0.0,0 STARLINK-5441,1 54787U 22175AF  23063.71772508 -.00002166  00000-0 -11806-3 0  9995,2 54787  53.2166 306.2898 0000905  94.0609 266.0487 15.08831992 11555,6917.905,95.438,540.396,539.144,0.0
54787.0,STARLINK-5441,PAYLOAD,2023-03-05 01:10:26,15.08840861,0.0001157,53.2158,304.8011,93.1502,266.9622,1.4074e-05,-6.4e-07,0.0,0 STARLINK-5441,1 54787U 22175AF  23064.04892164 -.00000064  00000-0  14074-4 0  9998,2 54787  53.2158 304.8011 0001157  93.1502 266.9622 15.08840861 11600,6917.878,95.438,540.543,538.942,0.0
54787.0,STARLINK-5441,PAYLOAD,2023-03-05 21:50:27,15.0883781,0.0001158,53.2154,300.9349,98.1809,261.9314,4.7775e-05,4.73e-06,0.0,0 STARLINK-5441,1 54787U 22175AF  23064.91004468  .00000473  00000-0  47775-4 0  9993,2 54787  53.2154 300.9349 0001158  98.1809 261.9314 15.08837810 13899,6917.887,95.438,540.553,538.951,0.0
54787.0,STARLINK-5441,PAYLOAD,2023-03-06 01:01:13,15.0885285,0.0001013,53.2158,300.3406,86.8181,273.2927,0.00040901,6.23e-05,0.0,0 STARLINK-5441,1 54787U 22175AF  23065.04252170  .00006230  00000-0  40901-3 0  9993,2 54787  53.2158 300.3406 0001013  86.8181 273.2927 15.08852850 11758,6917.841,95.437,540.407,539.005,0.0
54787.0,STARLINK-5441,PAYLOAD,2023-03-06 15:19:42,15.08838746,0.0001026,53.215,297.665,78.3981,281.7126,0.00020573,2.988e-05,0.0,0 STARLINK-5441,1 54787U 22175AF  23065.63868892  .00002988  00000-0  20573-3 0  9991,2 54787  53.2150 297.6650 0001026  78.3981 281.7126 15.08838746 11840,6917.884,95.438,540.459,539.039,0.0
54787.0,STARLINK-5441,PAYLOAD,2023-03-06 21:41:15,15.08844633,0.0001359,53.2149,296.4752,98.734,261.3806,0.00032078,4.822e-05,0.0,0 STARLINK-5441,1 54787U 22175AF  23065.90364775  .00004822  00000-0  32078-3 0  9994,2 54787  53.2149 296.4752 0001359  98.7340 261.3806 15.08844633 14048,6917.866,95.437,540.671,538.791,0.0
54787.0,STARLINK-5441,PAYLOAD,2023-03-07 00:52:01,15.08849235,0.0001492,53.214,295.8797,96.4795,263.6367,0.00039142,5.949e-05,0.0,0 STARLINK-5441,1 54787U 22175AF  23066.03612611  .00005949  00000-0  39142-3 0  9994,2 54787  53.2140 295.8797 0001492  96.4795 263.6367 15.08849235 11900,6917.852,95.437,540.749,538.685,0.0
54787.0,STARLINK-5441,PAYLOAD,2023-03-07 18:21:15,15.08849769,0.0001243,53.215,292.6101,84.1038,276.0096,0.00024077,3.547e-05,0.0,0 STARLINK-5441,1 54787U 22175AF  23066.76476475  .00003547  00000-0  24077-3 0  9993,2 54787  53.2150 292.6101 0001243  84.1038 276.0096 15.08849769 12015,6917.851,95.437,540.575,538.856,0.0
54787.0,STARLINK-5441,PAYLOAD,2023-03-07 21:32:01,15.08854094,0.0001051,53.2151,292.0146,90.8114,269.2998,0.00035495,5.368e-05,0.0,0 STARLINK-5441,1 54787U 22175AF  23066.89724280  .00005368  00000-0  35495-3 0  9996,2 54787  53.2151 292.0146 0001051  90.8114 269.2998 15.08854094 14198,6917.837,95.437,540.429,538.975,0.0
54787.0,STARLINK-5441,PAYLOAD,2023-03-08 15:01:16,15.08838198,0.0001768,53.2136,288.7411,99.014,261.1052,6.8354e-05,8e-06,0.0,0 STARLINK-5441,1 54787U 22175AF  23067.62588746  .00000800  00000-0  68354-4 0  9990,2 54787  53.2136 288.7411 0001768  99.0140 261.1052 15.08838198 12145,6917.886,95.438,540.974,538.528,0.0
54787.0,STARLINK-5441,PAYLOAD,2023-03-08 21:22:49,15.08845153,0.0001976,53.213,287.5544,88.8874,271.2344,0.0002663,3.953e-05,0.0,0 STARLINK-5441,1 54787U 22175AF  23067.89084896  .00003953  00000-0  26630-3 0  9998,2 54787  53.2130 287.5544 0001976  88.8874 271.2344 15.08845153 14343,6917.865,95.437,541.097,538.363,0.0
54787.0,STARLINK-5441,PAYLOAD,2023-03-09 19:38:13,15.0884951,0.0001222,53.2151,283.3898,94.5686,265.5446,0.00061769,9.559e-05,0.0,0 STARLINK-5441,1 54787U 22175AF  23068.81820955  .00009559  00000-0  61769-3 0  9995,2 54787  53.2151 283.3898 0001222  94.5686 265.5446 15.08849510 12327,6917.851,95.437,540.562,538.871,0.0
54787.0,STARLINK-5441,PAYLOAD,2023-03-09 21:13:36,15.08860044,0.0001144,53.2145,283.092,79.464,280.6481,0.0010617,0.00016659,0.0,0 STARLINK-5441,1 54787U 22175AF  23068.88444871  .00016659  00000-0  10617-2 0  9995,2 54787  53.2145 283.0920 0001144  79.4640 280.6481 15.08860044 14490,6917.819,95.436,540.476,538.893,0.0
54787.0,STARLINK-5441,PAYLOAD,2023-03-10 06:45:55,15.08835152,0.0001576,53.2154,281.3078,91.3602,268.7571,0.00017528,2.502e-05,0.0,0 STARLINK-5441,1 54787U 22175AF  23069.28189134  .00002502  00000-0  17528-3 0  9999,2 54787  53.2154 281.3078 0001576  91.3602 268.7571 15.08835152 12391,6917.895,95.438,540.85,538.67,0.0
54787.0,STARLINK-5441,PAYLOAD,2023-03-10 21:04:23,15.08837249,0.0001061,53.2158,278.6324,96.7305,263.3808,6.235e-06,-1.89e-06,0.0,0 STARLINK-5441,1 54787U 22175AF  23069.87805186 -.00000189  00000-0  62350-5 0  9991,2 54787  53.2158 278.6324 0001061  96.7305 263.3808 15.08837249 14649,6917.889,95.438,540.488,539.02,0.0
54787.0,STARLINK-5441,PAYLOAD,2023-03-11 00:15:09,15.08845358,0.0001082,53.2163,278.037,89.4125,270.6991,0.00027401,4.076e-05,0.0,0 STARLINK-5441,1 54787U 22175AF  23070.01053067  .00004076  00000-0  27401-3 0  9996,2 54787  53.2163 278.0370 0001082  89.4125 270.6991 15.08845358 14668,6917.864,95.437,540.478,538.98,0.0
54787.0,STARLINK-5441,PAYLOAD,2023-03-12 00:05:57,15.08845548,0.0001176,53.215,273.5745,86.7565,273.3562,0.00030199,4.522e-05,0.0,0 STARLINK-5441,1 54787U 22175AF  23071.00413242  .00004522  00000-0  30199-3 0  9995,2 54787  53.2150 273.5745 0001176  86.7565 273.3562 15.08845548 12654,6917.863,95.437,540.542,538.915,0.0
54787.0,STARLINK-5441,PAYLOAD,2023-03-12 19:10:34,15.0884281,0.0001236,53.2162,270.0026,120.2487,239.8628,-6.7851e-05,-1.368e-05,0.0,0 STARLINK-5441,1 54787U 22175AF  23071.79901335 -.00001368  00000-0 -67851-4 0  9999,2 54787  53.2162 270.0026 0001236 120.2487 239.8628 15.08842810 12777,6917.872,95.437,540.592,538.882,0.0
54787.0,STARLINK-5441,PAYLOAD,2023-03-13 09:29:03,15.08837748,0.0001336,53.2153,267.3334,80.5127,279.6016,0.00020057,2.905e-05,0.0,0 STARLINK-5441,1 54787U 22175AF  23072.39518218  .00002905  00000-0  20057-3 0  9992,2 54787  53.2153 267.3334 0001336  80.5127 279.6016 15.08837748 12865,6917.887,95.438,540.677,538.828,0.0
54787.0,STARLINK-5441,PAYLOAD,2023-03-13 12:39:49,15.08835707,0.0001158,53.2155,266.7358,92.7057,267.4067,9.1151e-05,1.163e-05,0.0,0 STARLINK-5441,1 54787U 22175AF  23072.52766203  .00001163  00000-0  91151-4 0  9995,2 54787  53.2155 266.7358 0001158  92.7057 267.4067 15.08835707 15042,6917.894,95.438,540.56,538.957,0.0
54787.0,STARLINK-5441,PAYLOAD,2023-03-13 22:12:08,15.0884263,0.0001192,53.2157,264.9514,84.7683,275.3446,0.00030614,4.588e-05,0.0,0 STARLINK-5441,1 54787U 22175AF  23072.92510178  .00004588  00000-0  30614-3 0  9997,2 54787  53.2157 264.9514 0001192  84.7683 275.3446 15.08842630 15101,6917.872,95.437,540.562,538.913,0.0
54787.0,STARLINK-5441,PAYLOAD,2023-03-14 12:30:36,15.08848085,0.0001241,53.2153,262.2765,78.6442,281.469,0.00040843,6.22e-05,0.0,0 STARLINK-5441,1 54787U 22175AF  23073.52126073  .00006220  00000-0  40843-3 0  9991,2 54787  53.2153 262.2765 0001241  78.6442 281.4690 15.08848085 15194,6917.856,95.437,540.579,538.862,0.0
